[{"OBJECT_NAME":"ASTROCAST-0401","OBJECT_ID":"2023-001DF","EPOCH":"2026-03-09T17:04:53.382144","MEAN_MOTION":15.26258462,"ECCENTRICITY":0.00081423,"INCLINATION":97.5547,"RA_OF_ASC_NODE":160.5206,"ARG_OF_PERICENTER":188.4231,"MEAN_ANOMALY":171.6872,"EPHEMERIS_TYPE":0,"CLASSIFICATION_TYPE":"U","NORAD_CAT_ID":55110,"ELEMENT_SET_NO":999,"REV_AT_EPOCH":17602,"BSTAR":0.00037868349,"MEAN_MOTION_DOT":9.75e-5,"MEAN_MOTION_DDOT":0},{"OBJECT_NAME":"STARLINK-32758","OBJECT_ID":"2025-014K","EPOCH":"2026-03-09T06:26:00.363264","MEAN_MOTION":15.27595828,"ECCENTRICITY":7.965e-5,"INCLINATION":42.9949,"RA_OF_ASC_NODE":160.1651,"ARG_OF_PERICENTER":262.5243,"MEAN_ANOMALY":97.5518,"EPHEMERIS_TYPE":0,"CLASSIFICATION_TYPE":"U","NORAD_CAT_ID":62744,"ELEMENT_SET_NO":999,"REV_AT_EPOCH":6315,"BSTAR":0.00067211905,"MEAN_MOTION_DOT":0.00018288,"MEAN_MOTION_DDOT":0}]
