ASTROCAST-0401          
1 55110U 23001DF  26068.71172895  .00009750  00000+0  37868-3 0  9995
2 55110  97.5547 160.5206 0008142 188.4231 171.6872 15.26258462176022
STARLINK-32758          
1 62744U 25014K   26068.26805976  .00018288  00000+0  67212-3 0  9997
2 62744  42.9949 160.1651 0000796 262.5243  97.5518 15.27595828 63150
